{"type":"FeatureCollection","name":"wcp_town_aggregates_2024","crs":{"type":"name","properties":{"name":"urn:ogc:def:crs:OGC:1.3:CRS84"}},"features":[{"type":"Feature","properties":{"profile_id":"pelham-town","name":"Town of Pelham","profile_type":"overlapping town aggregate","map_role":"aggregate overlay","census_geoid":"0600000US3611957012","acs_year":2024,"population":12949,"population_moe":40,"median_household_income":210813,"assessor_parcel_acres":1143.6,"geography_note":"Overlapping town aggregate containing the Village of Pelham and Village of Pelham Manor. Do not add this total to either village profile."},"geometry":{"type":"Polygon","coordinates":[[[-73.823319,40.891298],[-73.823045,40.892078],[-73.822874,40.892644],[-73.822099,40.893792],[-73.822067,40.893841],[-73.821762,40.894305],[-73.821246,40.895117],[-73.821126,40.895297],[-73.820977,40.895383],[-73.820847,40.895438],[-73.82047,40.895548],[-73.819931,40.895736],[-73.819356,40.896037],[-73.818931,40.896337],[-73.818506,40.896638],[-73.818415,40.896814],[-73.818368,40.896973],[-73.818064,40.897983],[-73.817916,40.898234],[-73.817662,40.898678],[-73.817587,40.898791],[-73.817342,40.899216],[-73.817577,40.899807],[-73.817558,40.899945],[-73.817563,40.899974],[-73.817545,40.900133],[-73.817533,40.900155],[-73.817521,40.900257],[-73.81709,40.900808],[-73.816848,40.901034],[-73.816502,40.901333],[-73.816256,40.901549],[-73.816245,40.90186],[-73.816204,40.9019],[-73.81616,40.901949],[-73.816127,40.901987],[-73.816016,40.902031],[-73.815776,40.902112],[-73.815761,40.90212],[-73.815535,40.90236],[-73.815361,40.902557],[-73.815277,40.902708],[-73.815319,40.902921],[-73.81528,40.903148],[-73.815074,40.903297],[-73.81494,40.903463],[-73.814872,40.903679],[-73.814456,40.904172],[-73.814308,40.904344],[-73.814099,40.90452],[-73.814033,40.904575],[-73.814003,40.90462],[-73.813972,40.904703],[-73.813938,40.90479],[-73.813919,40.904801],[-73.813806,40.904868],[-73.813777,40.904947],[-73.813843,40.905047],[-73.813927,40.905172],[-73.813945,40.905405],[-73.813955,40.905533],[-73.813898,40.905922],[-73.813884,40.906004],[-73.813728,40.906189],[-73.813698,40.906217],[-73.813519,40.906355],[-73.813624,40.906546],[-73.813635,40.906725],[-73.813676,40.906942],[-73.81378,40.907167],[-73.813786,40.907196],[-73.813685,40.907296],[-73.813669,40.907326],[-73.813639,40.907385],[-73.813635,40.907403],[-73.813599,40.907453],[-73.813518,40.907569],[-73.8135,40.907594],[-73.813455,40.907698],[-73.813454,40.90776],[-73.813472,40.907861],[-73.813478,40.907897],[-73.813483,40.907928],[-73.81364,40.908376],[-73.813653,40.908414],[-73.813694,40.908528],[-73.813765,40.908705],[-73.813863,40.908939],[-73.814013,40.908998],[-73.814088,40.909067],[-73.814136,40.909246],[-73.814208,40.909282],[-73.814277,40.909319],[-73.814294,40.909464],[-73.814284,40.909526],[-73.814271,40.909587],[-73.814261,40.909647],[-73.814186,40.909856],[-73.814142,40.909905],[-73.814157,40.910087],[-73.814156,40.910105],[-73.814116,40.910119],[-73.813998,40.910154],[-73.813982,40.91016],[-73.813874,40.910312],[-73.813658,40.910525],[-73.813637,40.91078],[-73.813548,40.911051],[-73.813465,40.911318],[-73.813418,40.911541],[-73.813398,40.911717],[-73.813357,40.912138],[-73.813369,40.912403],[-73.813044,40.913143],[-73.813097,40.913246],[-73.813139,40.913343],[-73.813201,40.913475],[-73.813168,40.913622],[-73.813159,40.913889],[-73.81317,40.914027],[-73.813369,40.914212],[-73.813427,40.91431],[-73.813408,40.914415],[-73.813245,40.9146],[-73.813135,40.914687],[-73.812902,40.914736],[-73.812745,40.914732],[-73.81261,40.914729],[-73.812444,40.914706],[-73.812311,40.914684],[-73.812265,40.914677],[-73.812064,40.914662],[-73.811941,40.914723],[-73.81184,40.915058],[-73.811831,40.91516],[-73.811821,40.915387],[-73.811808,40.915728],[-73.811746,40.915939],[-73.811562,40.916045],[-73.81142,40.916126],[-73.811358,40.916194],[-73.811274,40.916289],[-73.811227,40.91649],[-73.811233,40.916587],[-73.811226,40.916634],[-73.811182,40.916715],[-73.811089,40.916812],[-73.810944,40.916904],[-73.810959,40.916952],[-73.810972,40.916993],[-73.811102,40.91712],[-73.811145,40.917183],[-73.81118,40.917235],[-73.811105,40.91735],[-73.810969,40.917507],[-73.810937,40.917629],[-73.811078,40.917864],[-73.811141,40.917968],[-73.811151,40.917998],[-73.811242,40.918255],[-73.811263,40.918279],[-73.811365,40.918399],[-73.811225,40.918731],[-73.810854,40.919478],[-73.810749,40.919689],[-73.810565,40.920101],[-73.81054,40.920158],[-73.810265,40.920665],[-73.810001,40.921089],[-73.809684,40.921585],[-73.809364,40.922096],[-73.809339,40.92248],[-73.809353,40.922772],[-73.809311,40.923715],[-73.809314,40.923878],[-73.809306,40.923911],[-73.809144,40.924185],[-73.808915,40.924479],[-73.808546,40.924857],[-73.808419,40.924998],[-73.808196,40.925122],[-73.808113,40.925191],[-73.808054,40.92526],[-73.807985,40.925402],[-73.807954,40.925444],[-73.807937,40.925474],[-73.807766,40.925577],[-73.807703,40.925578],[-73.807596,40.925577],[-73.807537,40.925576],[-73.807389,40.925625],[-73.807362,40.925634],[-73.807225,40.925679],[-73.806967,40.925716],[-73.806678,40.925712],[-73.806567,40.925687],[-73.806518,40.925679],[-73.806471,40.925667],[-73.806419,40.92562],[-73.806383,40.925589],[-73.806306,40.925521],[-73.806207,40.925372],[-73.805622,40.92544],[-73.805456,40.925453],[-73.805355,40.925618],[-73.80527,40.925725],[-73.805183,40.925948],[-73.805023,40.926132],[-73.805013,40.925915],[-73.804923,40.925596],[-73.804882,40.925508],[-73.804811,40.925324],[-73.804773,40.925295],[-73.80474,40.925269],[-73.804706,40.925172],[-73.804466,40.924389],[-73.804409,40.924147],[-73.804224,40.923259],[-73.804171,40.923003],[-73.804086,40.922587],[-73.803931,40.921781],[-73.803892,40.921524],[-73.80392,40.921346],[-73.803947,40.921267],[-73.803975,40.921183],[-73.803967,40.920985],[-73.80356,40.919173],[-73.803272,40.918074],[-73.803136,40.917514],[-73.803049,40.916832],[-73.802621,40.914869],[-73.80237,40.913756],[-73.802252,40.913215],[-73.802199,40.913199],[-73.802132,40.913202],[-73.802066,40.913204],[-73.801994,40.913031],[-73.801909,40.912874],[-73.801801,40.912718],[-73.801783,40.912588],[-73.801793,40.912457],[-73.801936,40.911969],[-73.801979,40.911824],[-73.801945,40.911808],[-73.801691,40.910654],[-73.801618,40.910324],[-73.801592,40.910126],[-73.80158,40.910033],[-73.801368,40.909119],[-73.80121,40.908415],[-73.800947,40.908236],[-73.800334,40.905258],[-73.800135,40.904274],[-73.799923,40.902781],[-73.799902,40.902612],[-73.799889,40.902541],[-73.799797,40.901998],[-73.799764,40.901845],[-73.799695,40.90145],[-73.799622,40.901125],[-73.799407,40.900143],[-73.799266,40.899557],[-73.799253,40.899483],[-73.799174,40.899025],[-73.799109,40.898591],[-73.799058,40.89839],[-73.798869,40.897547],[-73.798735,40.89696],[-73.798534,40.895948],[-73.798314,40.895651],[-73.798239,40.89547],[-73.798125,40.895205],[-73.797934,40.894947],[-73.797636,40.894565],[-73.794726,40.89159],[-73.794016,40.890866],[-73.793893,40.890751],[-73.793679,40.89055],[-73.793493,40.890348],[-73.793056,40.889908],[-73.790673,40.887516],[-73.789854,40.886693],[-73.788342,40.885172],[-73.788303,40.885129],[-73.788297,40.885088],[-73.78666,40.883577],[-73.786671,40.883549],[-73.78666,40.883474],[-73.7861,40.88291],[-73.785449,40.882255],[-73.785379,40.882182],[-73.785365,40.882174],[-73.785349,40.882165],[-73.785272,40.882125],[-73.78526,40.882121],[-73.785212,40.882094],[-73.785123,40.882049],[-73.785014,40.881995],[-73.784903,40.881946],[-73.784821,40.881908],[-73.784766,40.881881],[-73.784752,40.881875],[-73.78474,40.881869],[-73.784726,40.881863],[-73.783702,40.881078],[-73.785797,40.8816],[-73.791993,40.88317],[-73.793016,40.883361],[-73.793284,40.883419],[-73.794107,40.883631],[-73.794842,40.883822],[-73.794961,40.883853],[-73.796246,40.884186],[-73.797353,40.884468],[-73.799279,40.884965],[-73.801932,40.885648],[-73.803017,40.885926],[-73.804402,40.886281],[-73.804997,40.886433],[-73.805368,40.886528],[-73.806398,40.886795],[-73.807575,40.887098],[-73.808757,40.887402],[-73.809651,40.887637],[-73.809923,40.887684],[-73.809942,40.88769],[-73.810408,40.887832],[-73.811,40.887983],[-73.811281,40.888054],[-73.812324,40.888321],[-73.812439,40.888353],[-73.813666,40.888661],[-73.814177,40.888795],[-73.815048,40.888951],[-73.815165,40.888999],[-73.815329,40.889066],[-73.815603,40.889178],[-73.816104,40.889276],[-73.816206,40.889316],[-73.816484,40.889386],[-73.816619,40.889419],[-73.816749,40.889454],[-73.817596,40.889675],[-73.817614,40.889679],[-73.818503,40.889878],[-73.818732,40.88994],[-73.818929,40.889993],[-73.819419,40.890125],[-73.8195,40.890147],[-73.819558,40.890163],[-73.819719,40.890206],[-73.820994,40.890543],[-73.821703,40.89073],[-73.822959,40.891056],[-73.823003,40.891078],[-73.823244,40.891199],[-73.823318,40.891236],[-73.823319,40.891298]]]}},{"type":"Feature","properties":{"profile_id":"rye-town","name":"Town of Rye","profile_type":"overlapping town aggregate","map_role":"aggregate overlay","census_geoid":"0600000US3611964320","acs_year":2024,"population":48734,"population_moe":83,"median_household_income":108265,"assessor_parcel_acres":3710.1,"geography_note":"Overlapping, noncontiguous town aggregate containing Port Chester, Rye Brook, and the Rye Neck section of Mamaroneck Village. Do not add this total to those village profiles; Rye City is separate."},"geometry":{"type":"MultiPolygon","coordinates":[[[[-73.706636,41.073418],[-73.706615,41.073567],[-73.706593,41.073638],[-73.706557,41.073742],[-73.706506,41.073803],[-73.70636,41.073998],[-73.706304,41.074071],[-73.705705,41.073305],[-73.705565,41.073125],[-73.705073,41.072495],[-73.701555,41.068188],[-73.696483,41.061976],[-73.696415,41.061892],[-73.696252,41.061693],[-73.696173,41.061596],[-73.694681,41.05979],[-73.694206,41.059331],[-73.693952,41.059004],[-73.69349,41.058473],[-73.693152,41.058061],[-73.69304,41.057925],[-73.692865,41.057711],[-73.692346,41.057143],[-73.691481,41.056022],[-73.691251,41.05573],[-73.691014,41.05543],[-73.690717,41.055047],[-73.689826,41.0539],[-73.689529,41.053518],[-73.68885,41.052537],[-73.688418,41.052024],[-73.68789,41.051529],[-73.687173,41.050697],[-73.687009,41.050487],[-73.686955,41.050418],[-73.686901,41.050349],[-73.686833,41.050262],[-73.686765,41.050175],[-73.685718,41.048839],[-73.68296,41.045314],[-73.682947,41.045303],[-73.682473,41.044697],[-73.681845,41.043969],[-73.679771,41.041944],[-73.679754,41.041923],[-73.679512,41.04165],[-73.679275,41.041384],[-73.678904,41.040902],[-73.678776,41.040733],[-73.678562,41.0404],[-73.678537,41.040371],[-73.677463,41.039124],[-73.677444,41.039102],[-73.677057,41.038652],[-73.676579,41.038097],[-73.676485,41.037982],[-73.676233,41.037677],[-73.676185,41.037618],[-73.676088,41.037505],[-73.675918,41.037306],[-73.675743,41.037002],[-73.675651,41.036895],[-73.675599,41.036836],[-73.675575,41.036813],[-73.675546,41.036785],[-73.675501,41.036739],[-73.675487,41.036724],[-73.675396,41.03663],[-73.675345,41.036576],[-73.67533,41.036561],[-73.675311,41.036541],[-73.675225,41.036445],[-73.675191,41.036407],[-73.675123,41.036331],[-73.675103,41.036306],[-73.67499,41.036168],[-73.674922,41.036085],[-73.674804,41.035941],[-73.674517,41.035626],[-73.673707,41.034637],[-73.673097,41.033911],[-73.672718,41.033472],[-73.672551,41.033274],[-73.671927,41.032534],[-73.671832,41.032421],[-73.671411,41.031925],[-73.67135,41.031852],[-73.671074,41.031527],[-73.671054,41.031498],[-73.671023,41.031451],[-73.670974,41.031377],[-73.670687,41.03095],[-73.670632,41.030868],[-73.670606,41.03083],[-73.670589,41.030785],[-73.670511,41.030488],[-73.670381,41.030072],[-73.670377,41.030059],[-73.670275,41.029948],[-73.669772,41.029397],[-73.669727,41.02933],[-73.669172,41.028497],[-73.666782,41.025584],[-73.666715,41.025502],[-73.666539,41.025288],[-73.666421,41.025144],[-73.665606,41.024144],[-73.665257,41.023717],[-73.66524,41.023697],[-73.665189,41.023635],[-73.665177,41.023621],[-73.664672,41.022997],[-73.664179,41.022286],[-73.664148,41.022257],[-73.664074,41.022187],[-73.663858,41.021943],[-73.663604,41.021665],[-73.663522,41.021565],[-73.66351,41.021547],[-73.662756,41.020573],[-73.662739,41.020558],[-73.662672,41.020497],[-73.661847,41.019769],[-73.661735,41.01967],[-73.661716,41.019653],[-73.660454,41.018542],[-73.660309,41.018413],[-73.660293,41.018399],[-73.66026,41.01837],[-73.659563,41.017754],[-73.659447,41.017651],[-73.659078,41.017268],[-73.658992,41.017178],[-73.658772,41.01683],[-73.658679,41.016706],[-73.658189,41.016154],[-73.658139,41.016097],[-73.657872,41.015797],[-73.657372,41.015097],[-73.656901,41.014525],[-73.656867,41.014465],[-73.656293,41.013446],[-73.656204,41.013291],[-73.656117,41.013135],[-73.65565,41.012678],[-73.655413,41.012445],[-73.65532,41.012337],[-73.655255,41.012246],[-73.655241,41.011852],[-73.655276,41.011727],[-73.656065,41.008923],[-73.656846,41.00721],[-73.657214,41.006404],[-73.65769,41.005509],[-73.657781,41.005336],[-73.657874,41.005164],[-73.657916,41.005079],[-73.657959,41.004994],[-73.65802,41.00487],[-73.658082,41.004747],[-73.658555,41.004018],[-73.659691,41.001512],[-73.660132,41.000685],[-73.660174,41.000621],[-73.660268,41.000484],[-73.660241,41.000426],[-73.66021,41.000357],[-73.660134,41.000086],[-73.660057,40.999816],[-73.659939,40.999401],[-73.659736,40.998682],[-73.659727,40.99865],[-73.659416,40.997549],[-73.659309,40.997171],[-73.659383,40.996512],[-73.659494,40.995525],[-73.659507,40.995433],[-73.659516,40.995368],[-73.659582,40.994909],[-73.659648,40.994452],[-73.659639,40.994339],[-73.659585,40.99414],[-73.659486,40.993975],[-73.659106,40.993338],[-73.659042,40.993263],[-73.659032,40.993251],[-73.657972,40.991997],[-73.657228,40.990914],[-73.657799,40.990238],[-73.65863,40.989257],[-73.658776,40.98913],[-73.658882,40.989023],[-73.658911,40.988991],[-73.659291,40.98845],[-73.659474,40.988188],[-73.659531,40.988106],[-73.659671,40.987909],[-73.65938,40.987568],[-73.657615,40.985499],[-73.662172,40.986496],[-73.66297,40.986697],[-73.663017,40.986606],[-73.663548,40.986799],[-73.66609,40.987728],[-73.666773,40.987982],[-73.666913,40.988033],[-73.667094,40.988101],[-73.667289,40.988174],[-73.66921,40.988886],[-73.669834,40.989118],[-73.670222,40.989202],[-73.671076,40.989367],[-73.672424,40.99008],[-73.67316,40.990354],[-73.674454,40.990831],[-73.675185,40.99111],[-73.677052,40.991821],[-73.677142,40.991856],[-73.677179,40.99187],[-73.677392,40.991951],[-73.677781,40.992102],[-73.679656,40.992826],[-73.679619,40.993573],[-73.679587,40.993967],[-73.679533,40.994674],[-73.679616,40.994703],[-73.680016,40.994813],[-73.680661,40.994922],[-73.681452,40.995079],[-73.681761,40.995123],[-73.682133,40.995175],[-73.682919,40.995333],[-73.683568,40.995438],[-73.683819,40.995498],[-73.683576,40.995945],[-73.683344,40.996305],[-73.683078,40.996706],[-73.682923,40.996893],[-73.682561,40.997289],[-73.682334,40.997597],[-73.682325,40.997609],[-73.68242,40.997616],[-73.68499,40.997859],[-73.685031,40.998068],[-73.68505,40.998166],[-73.685046,40.998191],[-73.68504,40.998349],[-73.685047,40.998445],[-73.685048,40.998489],[-73.685054,40.998673],[-73.685054,40.998778],[-73.685047,40.9989],[-73.685066,40.998941],[-73.685092,40.999004],[-73.685128,40.999077],[-73.685153,40.999123],[-73.685174,40.999165],[-73.685206,40.999229],[-73.685245,40.999339],[-73.685249,40.999363],[-73.685251,40.999401],[-73.685206,40.999445],[-73.685194,40.999457],[-73.685121,40.999513],[-73.685085,40.99953],[-73.685072,40.999536],[-73.68501,40.999553],[-73.684963,40.999556],[-73.684893,40.999544],[-73.684842,40.999544],[-73.684802,40.99955],[-73.684761,40.999563],[-73.684719,40.999597],[-73.684693,40.999639],[-73.684665,40.999742],[-73.684637,40.999892],[-73.684642,40.999913],[-73.684664,41.000016],[-73.684687,41.000164],[-73.684698,41.000269],[-73.684689,41.000561],[-73.684689,41.000737],[-73.684686,41.000884],[-73.684675,41.001267],[-73.684685,41.00139],[-73.684719,41.001488],[-73.684764,41.001605],[-73.684774,41.001678],[-73.68479,41.001782],[-73.6848,41.001878],[-73.684886,41.001933],[-73.684925,41.001966],[-73.684949,41.002052],[-73.684965,41.002087],[-73.684983,41.002103],[-73.685025,41.002153],[-73.685053,41.002187],[-73.68532,41.002252],[-73.685531,41.002429],[-73.685578,41.002549],[-73.685939,41.002734],[-73.686007,41.00277],[-73.686044,41.002789],[-73.686227,41.002845],[-73.686289,41.002844],[-73.686292,41.002853],[-73.686298,41.002987],[-73.686295,41.003124],[-73.686296,41.003206],[-73.6863,41.003232],[-73.686309,41.003284],[-73.686323,41.003335],[-73.686355,41.003385],[-73.686378,41.003403],[-73.686416,41.00341],[-73.686457,41.003421],[-73.686486,41.003426],[-73.686548,41.003438],[-73.686638,41.003462],[-73.686728,41.003488],[-73.686781,41.003504],[-73.686819,41.003517],[-73.686879,41.003537],[-73.686951,41.003562],[-73.686988,41.003572],[-73.687063,41.003586],[-73.687159,41.003597],[-73.687241,41.003599],[-73.687312,41.003595],[-73.687399,41.003584],[-73.687518,41.003553],[-73.687583,41.003535],[-73.687653,41.003542],[-73.687694,41.00354],[-73.687736,41.003534],[-73.687775,41.003525],[-73.687841,41.003499],[-73.687873,41.003481],[-73.687924,41.003439],[-73.687956,41.003398],[-73.68797,41.003369],[-73.68799,41.003304],[-73.688001,41.003286],[-73.688025,41.003248],[-73.688064,41.003209],[-73.688092,41.003187],[-73.688223,41.003103],[-73.688251,41.003083],[-73.688327,41.003033],[-73.688379,41.002998],[-73.688404,41.002978],[-73.688476,41.002918],[-73.688552,41.00286],[-73.688583,41.002837],[-73.688677,41.002777],[-73.688851,41.002696],[-73.688905,41.002691],[-73.688939,41.002692],[-73.688972,41.002696],[-73.688995,41.002701],[-73.68902,41.00271],[-73.689054,41.002723],[-73.689093,41.002746],[-73.689134,41.002774],[-73.689209,41.002823],[-73.6893,41.002884],[-73.689364,41.002918],[-73.689443,41.002957],[-73.689528,41.003001],[-73.689581,41.00302],[-73.689671,41.003053],[-73.689728,41.003104],[-73.689752,41.00313],[-73.689779,41.00314],[-73.689793,41.003142],[-73.689834,41.003115],[-73.689886,41.003102],[-73.689915,41.003101],[-73.689946,41.003112],[-73.689967,41.003127],[-73.690019,41.003154],[-73.690051,41.00316],[-73.690142,41.003166],[-73.690192,41.00317],[-73.690267,41.003193],[-73.690328,41.003217],[-73.690388,41.003252],[-73.690483,41.003313],[-73.690648,41.003425],[-73.691004,41.003668],[-73.691448,41.003896],[-73.69156,41.003958],[-73.691742,41.004079],[-73.692178,41.004289],[-73.69228,41.004353],[-73.692439,41.004441],[-73.692519,41.004494],[-73.692543,41.004551],[-73.692545,41.00473],[-73.692543,41.004874],[-73.692526,41.005161],[-73.692523,41.00529],[-73.692507,41.005406],[-73.692494,41.005583],[-73.692476,41.005827],[-73.692477,41.005937],[-73.692427,41.00635],[-73.692385,41.006455],[-73.692318,41.006608],[-73.692235,41.006837],[-73.692223,41.006918],[-73.692219,41.006993],[-73.692271,41.007028],[-73.692341,41.007045],[-73.692399,41.007039],[-73.692438,41.007035],[-73.692507,41.007032],[-73.692643,41.007024],[-73.692664,41.007024],[-73.692709,41.007038],[-73.692756,41.007058],[-73.692824,41.007087],[-73.692908,41.007141],[-73.692929,41.007155],[-73.692989,41.007239],[-73.693128,41.00744],[-73.693261,41.007635],[-73.693366,41.007782],[-73.693488,41.007954],[-73.693577,41.008056],[-73.69386,41.008367],[-73.693911,41.008455],[-73.694027,41.008682],[-73.694544,41.009695],[-73.694777,41.010156],[-73.694841,41.010302],[-73.694883,41.01058],[-73.694911,41.01073],[-73.694979,41.01118],[-73.694985,41.011202],[-73.694808,41.011367],[-73.694749,41.011397],[-73.6945,41.011518],[-73.694374,41.011577],[-73.694323,41.011622],[-73.694197,41.011732],[-73.693962,41.011936],[-73.693857,41.012122],[-73.693753,41.012366],[-73.693646,41.012622],[-73.693623,41.012684],[-73.693593,41.012747],[-73.693635,41.012834],[-73.693671,41.012916],[-73.693699,41.01296],[-73.693763,41.013078],[-73.693769,41.013097],[-73.693711,41.01327],[-73.693622,41.013375],[-73.693469,41.013518],[-73.693256,41.013781],[-73.692905,41.014218],[-73.692832,41.01431],[-73.692524,41.01497],[-73.692347,41.015506],[-73.692328,41.015574],[-73.692123,41.015825],[-73.692092,41.016035],[-73.692088,41.01611],[-73.692099,41.016151],[-73.692145,41.016251],[-73.692216,41.016434],[-73.692336,41.016639],[-73.692447,41.016852],[-73.692511,41.016927],[-73.692529,41.016939],[-73.69256,41.016933],[-73.692605,41.016915],[-73.69263,41.016906],[-73.692664,41.016897],[-73.692691,41.016894],[-73.692708,41.016901],[-73.692783,41.016991],[-73.692789,41.017084],[-73.692759,41.017154],[-73.692752,41.017167],[-73.692717,41.017263],[-73.692719,41.017287],[-73.692733,41.017326],[-73.692763,41.017357],[-73.69284,41.017409],[-73.692926,41.017473],[-73.693001,41.017522],[-73.693104,41.017576],[-73.693204,41.01764],[-73.693247,41.017667],[-73.693325,41.017734],[-73.693435,41.017833],[-73.693568,41.017968],[-73.693627,41.018026],[-73.693731,41.018122],[-73.693868,41.0182],[-73.694005,41.018239],[-73.694054,41.018247],[-73.694106,41.018254],[-73.694191,41.018267],[-73.694294,41.018267],[-73.694402,41.018257],[-73.69453,41.018232],[-73.694611,41.018216],[-73.694796,41.018188],[-73.694942,41.018168],[-73.695377,41.018084],[-73.695408,41.018105],[-73.695517,41.018223],[-73.695566,41.0183],[-73.695684,41.01858],[-73.695736,41.018709],[-73.695739,41.018785],[-73.69574,41.018834],[-73.695749,41.01886],[-73.695796,41.01901],[-73.695821,41.019076],[-73.695825,41.019178],[-73.695819,41.01932],[-73.695794,41.01937],[-73.695719,41.019442],[-73.695647,41.01947],[-73.695535,41.019493],[-73.69549,41.0195],[-73.695303,41.019528],[-73.695084,41.019568],[-73.695023,41.019594],[-73.694937,41.019623],[-73.694784,41.019758],[-73.694695,41.019854],[-73.694575,41.020006],[-73.694557,41.020028],[-73.694491,41.02011],[-73.694444,41.020162],[-73.694388,41.020203],[-73.694275,41.020286],[-73.694241,41.020335],[-73.694013,41.020671],[-73.693976,41.020736],[-73.693806,41.020978],[-73.693859,41.02102],[-73.69397,41.021105],[-73.694101,41.021207],[-73.694226,41.021278],[-73.694244,41.021288],[-73.694373,41.021399],[-73.694498,41.021612],[-73.694583,41.021763],[-73.69478,41.022127],[-73.694825,41.02223],[-73.694842,41.022319],[-73.694776,41.02243],[-73.694752,41.022497],[-73.694705,41.022561],[-73.694598,41.022621],[-73.694569,41.022637],[-73.694415,41.022781],[-73.694342,41.022879],[-73.694218,41.023079],[-73.694144,41.02319],[-73.69398,41.023359],[-73.693856,41.023456],[-73.693616,41.023624],[-73.69346,41.02374],[-73.693291,41.023874],[-73.693204,41.024024],[-73.693105,41.024198],[-73.693096,41.024222],[-73.693032,41.024353],[-73.693006,41.02441],[-73.692912,41.0245],[-73.692767,41.024598],[-73.692478,41.024742],[-73.692358,41.024802],[-73.692218,41.024921],[-73.692204,41.024991],[-73.692186,41.025069],[-73.692165,41.025182],[-73.692105,41.025273],[-73.691982,41.025449],[-73.691924,41.025545],[-73.691881,41.025614],[-73.691832,41.025658],[-73.691769,41.025755],[-73.691744,41.025822],[-73.691724,41.025898],[-73.691689,41.025988],[-73.691649,41.026079],[-73.691626,41.026117],[-73.69159,41.026146],[-73.691537,41.026167],[-73.691466,41.026188],[-73.691396,41.026207],[-73.691328,41.02622],[-73.691204,41.026232],[-73.690999,41.026239],[-73.690971,41.026239],[-73.69071,41.026242],[-73.690574,41.026243],[-73.690428,41.026245],[-73.690201,41.026248],[-73.690098,41.026268],[-73.690017,41.026322],[-73.689894,41.026445],[-73.689622,41.026626],[-73.689499,41.026698],[-73.689385,41.026787],[-73.68929,41.02686],[-73.689238,41.02695],[-73.689229,41.027007],[-73.689226,41.02707],[-73.689219,41.027177],[-73.689201,41.027297],[-73.689203,41.027409],[-73.689209,41.027501],[-73.689205,41.027625],[-73.689181,41.027833],[-73.689172,41.027931],[-73.689168,41.027968],[-73.689154,41.028064],[-73.689103,41.028133],[-73.689006,41.028178],[-73.688917,41.028253],[-73.688911,41.02832],[-73.68891,41.028503],[-73.688901,41.0286],[-73.68889,41.028728],[-73.688888,41.028797],[-73.689005,41.029006],[-73.689161,41.029258],[-73.689186,41.029368],[-73.689206,41.029456],[-73.689212,41.029503],[-73.689171,41.029616],[-73.689149,41.029792],[-73.68918,41.029888],[-73.689205,41.029976],[-73.689152,41.030059],[-73.689131,41.03038],[-73.689102,41.030668],[-73.689097,41.03071],[-73.689128,41.030813],[-73.689138,41.03085],[-73.689148,41.030936],[-73.689149,41.030981],[-73.689152,41.03103],[-73.689154,41.031146],[-73.689174,41.031395],[-73.689184,41.03145],[-73.689055,41.031608],[-73.689073,41.03171],[-73.689103,41.031915],[-73.689134,41.032099],[-73.689139,41.03215],[-73.689148,41.032247],[-73.689168,41.032265],[-73.689169,41.032297],[-73.689186,41.032616],[-73.6892,41.032781],[-73.689226,41.032817],[-73.68924,41.032837],[-73.689294,41.032914],[-73.689316,41.032983],[-73.689374,41.033169],[-73.689398,41.033519],[-73.689358,41.034014],[-73.689327,41.034076],[-73.689252,41.034234],[-73.68925,41.034408],[-73.689479,41.03458],[-73.689498,41.034597],[-73.689539,41.034627],[-73.689632,41.034696],[-73.689807,41.034829],[-73.689921,41.034946],[-73.690093,41.035426],[-73.68994,41.03543],[-73.689875,41.035433],[-73.689751,41.035438],[-73.689731,41.035464],[-73.689671,41.035539],[-73.68957,41.035666],[-73.689501,41.035752],[-73.689511,41.035775],[-73.689517,41.035787],[-73.689676,41.036057],[-73.689731,41.036049],[-73.689773,41.036043],[-73.689925,41.036024],[-73.68997,41.036195],[-73.689954,41.036643],[-73.689859,41.036705],[-73.689833,41.036722],[-73.689759,41.036741],[-73.689738,41.036723],[-73.689717,41.03674],[-73.689704,41.036761],[-73.689748,41.036878],[-73.689778,41.036956],[-73.68979,41.03699],[-73.68981,41.037042],[-73.689825,41.037082],[-73.689831,41.037093],[-73.689855,41.037123],[-73.689862,41.037132],[-73.689885,41.03716],[-73.689944,41.037237],[-73.689832,41.037359],[-73.689756,41.037432],[-73.689744,41.037507],[-73.689723,41.037613],[-73.689704,41.037705],[-73.689688,41.037775],[-73.689681,41.037809],[-73.689663,41.037904],[-73.689647,41.03797],[-73.68965,41.037988],[-73.689684,41.038107],[-73.689714,41.03821],[-73.68972,41.03823],[-73.689823,41.038416],[-73.689896,41.038554],[-73.69002,41.038789],[-73.690046,41.038841],[-73.690082,41.038983],[-73.69008,41.039099],[-73.690032,41.03915],[-73.690009,41.039173],[-73.689981,41.039446],[-73.689978,41.039503],[-73.690004,41.039542],[-73.690066,41.039626],[-73.690119,41.039652],[-73.690202,41.039721],[-73.690237,41.039756],[-73.690375,41.039896],[-73.6904,41.03993],[-73.690468,41.039998],[-73.690537,41.040113],[-73.690552,41.040131],[-73.690686,41.040256],[-73.690697,41.040272],[-73.690768,41.04037],[-73.690788,41.040394],[-73.690914,41.040509],[-73.690882,41.040548],[-73.690823,41.040641],[-73.690815,41.04067],[-73.690785,41.04071],[-73.690759,41.040746],[-73.690748,41.04076],[-73.690744,41.04083],[-73.69075,41.040868],[-73.690776,41.040899],[-73.690819,41.040951],[-73.690835,41.04097],[-73.690865,41.040995],[-73.690938,41.041012],[-73.691006,41.041027],[-73.691046,41.041042],[-73.691145,41.04108],[-73.69118,41.041111],[-73.691228,41.041135],[-73.691258,41.041157],[-73.691274,41.041169],[-73.691318,41.041214],[-73.691323,41.041226],[-73.691373,41.041296],[-73.691406,41.0413],[-73.691467,41.041332],[-73.691525,41.041363],[-73.691553,41.041378],[-73.691647,41.041406],[-73.691716,41.041438],[-73.691742,41.041464],[-73.69179,41.041514],[-73.691878,41.041571],[-73.691899,41.041605],[-73.691907,41.041653],[-73.691873,41.041742],[-73.691823,41.041798],[-73.691802,41.041814],[-73.691784,41.041828],[-73.691762,41.041865],[-73.691736,41.041909],[-73.691732,41.042003],[-73.691734,41.042016],[-73.691738,41.042068],[-73.69174,41.042092],[-73.691747,41.04212],[-73.691747,41.042135],[-73.691746,41.042217],[-73.69174,41.042231],[-73.691716,41.042258],[-73.691682,41.042275],[-73.691659,41.042287],[-73.691593,41.04228],[-73.691558,41.042301],[-73.691516,41.042341],[-73.691509,41.042362],[-73.69149,41.042416],[-73.691484,41.042429],[-73.691467,41.042465],[-73.691452,41.042482],[-73.691414,41.042509],[-73.691365,41.042544],[-73.691357,41.042554],[-73.691364,41.042578],[-73.691391,41.042605],[-73.691406,41.042619],[-73.691454,41.042687],[-73.691475,41.042717],[-73.69151,41.042779],[-73.691557,41.042838],[-73.691537,41.042848],[-73.691501,41.042864],[-73.691452,41.04294],[-73.691434,41.043023],[-73.691464,41.043071],[-73.691497,41.043122],[-73.691558,41.043187],[-73.691582,41.043212],[-73.691593,41.043229],[-73.691621,41.04327],[-73.691623,41.043288],[-73.691626,41.04331],[-73.691621,41.043337],[-73.691606,41.043365],[-73.691594,41.043391],[-73.691582,41.043432],[-73.691586,41.043467],[-73.691597,41.043496],[-73.691611,41.043519],[-73.691636,41.043549],[-73.691668,41.043576],[-73.691695,41.0436],[-73.691707,41.043621],[-73.691714,41.043636],[-73.691711,41.043666],[-73.691702,41.043696],[-73.691688,41.04373],[-73.691647,41.043768],[-73.691621,41.043808],[-73.691616,41.043828],[-73.691607,41.043891],[-73.691604,41.04391],[-73.691624,41.043948],[-73.691652,41.043992],[-73.691684,41.04403],[-73.691726,41.044071],[-73.691803,41.044126],[-73.691833,41.044153],[-73.691836,41.044163],[-73.691836,41.044177],[-73.691829,41.044193],[-73.691817,41.044213],[-73.69181,41.044229],[-73.69181,41.044255],[-73.691815,41.044268],[-73.691823,41.04428],[-73.691839,41.044295],[-73.691851,41.044303],[-73.691875,41.044317],[-73.691916,41.044347],[-73.691931,41.044373],[-73.691946,41.044407],[-73.691963,41.04442],[-73.691984,41.044434],[-73.692018,41.044452],[-73.692072,41.04448],[-73.692171,41.044537],[-73.692207,41.044567],[-73.692217,41.044577],[-73.692274,41.044634],[-73.692324,41.044664],[-73.692363,41.044677],[-73.692389,41.044682],[-73.692453,41.044687],[-73.692527,41.044668],[-73.692578,41.044668],[-73.692623,41.044677],[-73.692694,41.044701],[-73.692837,41.044772],[-73.692904,41.044848],[-73.692914,41.044898],[-73.692909,41.04494],[-73.692888,41.044979],[-73.692852,41.045017],[-73.692761,41.045081],[-73.692723,41.045111],[-73.692666,41.045155],[-73.692659,41.04518],[-73.692662,41.045244],[-73.692661,41.045313],[-73.692649,41.045459],[-73.692648,41.045498],[-73.692638,41.045556],[-73.692638,41.045592],[-73.692628,41.045693],[-73.692617,41.045751],[-73.692606,41.045821],[-73.692603,41.0459],[-73.692592,41.045927],[-73.692569,41.046059],[-73.692572,41.046096],[-73.692527,41.046158],[-73.692494,41.046196],[-73.692468,41.046232],[-73.69246,41.046261],[-73.692459,41.046281],[-73.692461,41.046297],[-73.69247,41.046323],[-73.692483,41.046345],[-73.692531,41.046385],[-73.692573,41.046398],[-73.692662,41.0464],[-73.692747,41.046389],[-73.692845,41.046402],[-73.692886,41.04642],[-73.692936,41.046448],[-73.692994,41.046475],[-73.69312,41.046509],[-73.693193,41.046525],[-73.693255,41.046535],[-73.693291,41.046541],[-73.693317,41.046548],[-73.693427,41.046587],[-73.69346,41.046599],[-73.693486,41.046611],[-73.693525,41.046629],[-73.693594,41.046673],[-73.693647,41.046721],[-73.693665,41.046737],[-73.693691,41.046764],[-73.69373,41.046817],[-73.693775,41.046878],[-73.693802,41.046917],[-73.693838,41.046976],[-73.693854,41.047004],[-73.693879,41.047052],[-73.693887,41.047074],[-73.693894,41.047092],[-73.693926,41.047223],[-73.693934,41.047259],[-73.693936,41.047284],[-73.693943,41.047396],[-73.693941,41.047471],[-73.693939,41.047559],[-73.693932,41.047658],[-73.693936,41.04769],[-73.693947,41.04775],[-73.69397,41.04779],[-73.694001,41.04781],[-73.69402,41.04782],[-73.694049,41.04783],[-73.69407,41.047833],[-73.694103,41.047836],[-73.694161,41.047832],[-73.694304,41.047824],[-73.694414,41.047836],[-73.694451,41.047845],[-73.694472,41.047854],[-73.694518,41.047876],[-73.69456,41.047907],[-73.69462,41.047992],[-73.694635,41.048025],[-73.694649,41.048054],[-73.694655,41.048065],[-73.694677,41.048097],[-73.694778,41.048243],[-73.694798,41.048269],[-73.694808,41.048293],[-73.694875,41.048418],[-73.694882,41.048433],[-73.69492,41.048516],[-73.694927,41.048527],[-73.694943,41.04855],[-73.694961,41.048582],[-73.694973,41.048634],[-73.694979,41.04867],[-73.694986,41.048716],[-73.695001,41.048763],[-73.695005,41.048772],[-73.695033,41.048804],[-73.695074,41.048813],[-73.695113,41.048811],[-73.695183,41.048789],[-73.695218,41.048787],[-73.695242,41.048791],[-73.695329,41.048843],[-73.695391,41.048887],[-73.695419,41.048898],[-73.695445,41.048911],[-73.695483,41.048932],[-73.695516,41.048958],[-73.695559,41.048995],[-73.69559,41.049018],[-73.695665,41.049078],[-73.695707,41.049126],[-73.695753,41.04914],[-73.695775,41.049147],[-73.695815,41.04923],[-73.695849,41.049266],[-73.695886,41.049285],[-73.695915,41.049293],[-73.695963,41.049294],[-73.696013,41.049296],[-73.696035,41.0493],[-73.696068,41.049318],[-73.696079,41.049348],[-73.696079,41.049373],[-73.696071,41.049386],[-73.696051,41.049403],[-73.696033,41.049424],[-73.696026,41.049446],[-73.69608,41.049545],[-73.6961,41.049571],[-73.696106,41.049602],[-73.696091,41.049619],[-73.696066,41.049657],[-73.696055,41.049701],[-73.696062,41.049736],[-73.696059,41.049754],[-73.696049,41.049769],[-73.69594,41.049835],[-73.695904,41.049866],[-73.695903,41.049883],[-73.695904,41.049935],[-73.695928,41.049991],[-73.69595,41.050006],[-73.696021,41.050033],[-73.696043,41.050069],[-73.696065,41.050107],[-73.696084,41.050126],[-73.696112,41.050137],[-73.696143,41.050149],[-73.696176,41.050183],[-73.696208,41.050216],[-73.696253,41.050232],[-73.696278,41.050234],[-73.696314,41.050238],[-73.696341,41.050246],[-73.696367,41.050262],[-73.696381,41.050275],[-73.696413,41.050378],[-73.696414,41.050432],[-73.696431,41.050454],[-73.696457,41.050465],[-73.696488,41.050475],[-73.696524,41.050477],[-73.696576,41.05046],[-73.696602,41.050453],[-73.696638,41.050461],[-73.696663,41.050472],[-73.696671,41.050483],[-73.69668,41.050503],[-73.69668,41.050546],[-73.6967,41.05058],[-73.696718,41.050588],[-73.696762,41.050601],[-73.696783,41.050615],[-73.696789,41.05064],[-73.696779,41.050675],[-73.696684,41.050757],[-73.696643,41.050814],[-73.696626,41.050848],[-73.696622,41.050869],[-73.69663,41.050916],[-73.696637,41.050948],[-73.696658,41.051011],[-73.696684,41.051069],[-73.696694,41.05115],[-73.696706,41.051187],[-73.696731,41.051224],[-73.696751,41.051237],[-73.69678,41.05125],[-73.696813,41.051252],[-73.696847,41.05125],[-73.696923,41.051272],[-73.696979,41.05129],[-73.697017,41.051312],[-73.697045,41.051339],[-73.697073,41.051355],[-73.697123,41.051362],[-73.697153,41.051354],[-73.697174,41.051329],[-73.697195,41.051281],[-73.697238,41.051242],[-73.697283,41.051232],[-73.697301,41.051231],[-73.697338,41.051241],[-73.697397,41.051264],[-73.697454,41.051312],[-73.697487,41.051355],[-73.697494,41.051388],[-73.697491,41.051423],[-73.697471,41.051476],[-73.697467,41.051508],[-73.697476,41.051532],[-73.697535,41.051609],[-73.697592,41.051667],[-73.697605,41.051689],[-73.697618,41.051711],[-73.697643,41.051724],[-73.697684,41.051731],[-73.697693,41.051742],[-73.697712,41.051761],[-73.697725,41.051783],[-73.697732,41.051813],[-73.697725,41.051844],[-73.697718,41.051853],[-73.697671,41.051893],[-73.697586,41.051963],[-73.697538,41.052018],[-73.697481,41.052061],[-73.697475,41.052189],[-73.697496,41.052258],[-73.697548,41.052316],[-73.697585,41.052366],[-73.697598,41.052435],[-73.697593,41.052453],[-73.697587,41.05249],[-73.697587,41.052519],[-73.697589,41.05256],[-73.697623,41.052625],[-73.697618,41.052689],[-73.697609,41.052743],[-73.697611,41.052763],[-73.697634,41.052792],[-73.69767,41.052803],[-73.697714,41.052807],[-73.697769,41.052797],[-73.697848,41.052807],[-73.697878,41.052821],[-73.697912,41.052856],[-73.697942,41.052899],[-73.697955,41.052939],[-73.697942,41.052979],[-73.697921,41.053008],[-73.697888,41.053055],[-73.697873,41.053119],[-73.697895,41.0532],[-73.697907,41.053245],[-73.697931,41.053272],[-73.697914,41.05341],[-73.69788,41.053434],[-73.69785,41.053468],[-73.697832,41.053504],[-73.697832,41.053561],[-73.697846,41.053602],[-73.697849,41.053664],[-73.697835,41.053717],[-73.69779,41.053812],[-73.697793,41.053865],[-73.697803,41.053887],[-73.697834,41.053932],[-73.697859,41.053955],[-73.697875,41.053967],[-73.697907,41.053994],[-73.697932,41.054004],[-73.69795,41.05401],[-73.697964,41.054017],[-73.697985,41.054035],[-73.698013,41.054078],[-73.69802,41.054097],[-73.698022,41.054128],[-73.698026,41.05415],[-73.698028,41.054189],[-73.698036,41.054222],[-73.69804,41.054233],[-73.698094,41.054312],[-73.698145,41.054394],[-73.698152,41.054439],[-73.698157,41.054468],[-73.698161,41.054481],[-73.698169,41.054501],[-73.698186,41.054524],[-73.698209,41.054543],[-73.698231,41.054555],[-73.698248,41.05456],[-73.698269,41.054565],[-73.698315,41.054563],[-73.698366,41.054556],[-73.698402,41.054544],[-73.698415,41.054542],[-73.698492,41.054539],[-73.698555,41.054542],[-73.698593,41.054546],[-73.698667,41.05456],[-73.698726,41.054578],[-73.698776,41.054596],[-73.698815,41.05461],[-73.698864,41.054629],[-73.698929,41.054648],[-73.69908,41.05469],[-73.699093,41.054693],[-73.699186,41.054703],[-73.69924,41.054709],[-73.699318,41.054722],[-73.699363,41.054731],[-73.699392,41.054738],[-73.699415,41.054745],[-73.699497,41.054772],[-73.699568,41.054798],[-73.6996,41.05481],[-73.699695,41.054855],[-73.699752,41.054883],[-73.699803,41.054897],[-73.699858,41.054903],[-73.699892,41.054902],[-73.699918,41.054901],[-73.699962,41.054893],[-73.699984,41.054886],[-73.700015,41.054876],[-73.700042,41.054861],[-73.700075,41.054841],[-73.70013,41.054796],[-73.700159,41.054761],[-73.700185,41.054753],[-73.700216,41.054751],[-73.700229,41.054762],[-73.700227,41.054808],[-73.700202,41.054894],[-73.700188,41.054934],[-73.700177,41.054966],[-73.700163,41.055019],[-73.700154,41.05505],[-73.700141,41.055106],[-73.700148,41.055123],[-73.70016,41.055128],[-73.70019,41.055124],[-73.70023,41.055101],[-73.700476,41.054988],[-73.70055,41.054959],[-73.700821,41.054861],[-73.700837,41.054855],[-73.700856,41.054843],[-73.700896,41.054828],[-73.700964,41.054806],[-73.701021,41.054792],[-73.701074,41.05478],[-73.701107,41.054775],[-73.701192,41.054764],[-73.701245,41.054762],[-73.701318,41.054762],[-73.701392,41.054767],[-73.701484,41.054774],[-73.701627,41.054786],[-73.701757,41.054832],[-73.70185,41.054875],[-73.701957,41.054925],[-73.702131,41.05499],[-73.70215,41.054997],[-73.702187,41.055014],[-73.702282,41.055074],[-73.702303,41.055084],[-73.702329,41.055092],[-73.702354,41.055091],[-73.70238,41.055084],[-73.702397,41.05508],[-73.702436,41.055073],[-73.702505,41.055066],[-73.702622,41.05505],[-73.702691,41.055035],[-73.702725,41.05502],[-73.702742,41.055005],[-73.702749,41.054979],[-73.702741,41.054942],[-73.702709,41.0549],[-73.702692,41.05487],[-73.702693,41.054841],[-73.702696,41.054829],[-73.702749,41.054803],[-73.703067,41.05472],[-73.70322,41.054713],[-73.703365,41.054734],[-73.703497,41.054775],[-73.703636,41.054858],[-73.70389,41.055179],[-73.704139,41.055386],[-73.704222,41.05547],[-73.704265,41.055515],[-73.704364,41.055617],[-73.704436,41.055678],[-73.704509,41.055774],[-73.704556,41.055852],[-73.704561,41.056003],[-73.704561,41.056096],[-73.704559,41.056115],[-73.704612,41.056198],[-73.704637,41.056249],[-73.704897,41.056351],[-73.704916,41.056358],[-73.704953,41.05641],[-73.70499,41.056521],[-73.705041,41.056668],[-73.705069,41.056757],[-73.705079,41.056787],[-73.705132,41.056936],[-73.705158,41.057014],[-73.705184,41.057063],[-73.705383,41.057175],[-73.705439,41.057209],[-73.705532,41.057251],[-73.705605,41.057273],[-73.705689,41.057263],[-73.705736,41.057221],[-73.705782,41.057206],[-73.705828,41.0572],[-73.705866,41.057237],[-73.705988,41.057371],[-73.70598,41.05748],[-73.705981,41.057628],[-73.706044,41.057739],[-73.70611,41.057859],[-73.706098,41.057942],[-73.706025,41.058009],[-73.706014,41.058024],[-73.706017,41.058054],[-73.706027,41.058108],[-73.706012,41.058174],[-73.705991,41.058314],[-73.705981,41.058364],[-73.705921,41.058419],[-73.705801,41.058495],[-73.705786,41.058519],[-73.705776,41.05873],[-73.705768,41.058752],[-73.705764,41.058768],[-73.705648,41.058862],[-73.705531,41.058944],[-73.705517,41.058971],[-73.705499,41.059016],[-73.70549,41.059133],[-73.705476,41.059179],[-73.705445,41.059248],[-73.705401,41.059316],[-73.705398,41.059354],[-73.705363,41.059466],[-73.705361,41.059564],[-73.705375,41.059627],[-73.705384,41.059668],[-73.705403,41.059729],[-73.705404,41.059794],[-73.705422,41.059841],[-73.705537,41.059913],[-73.705552,41.059923],[-73.705599,41.059981],[-73.705614,41.060014],[-73.705634,41.060104],[-73.705637,41.060157],[-73.705634,41.060185],[-73.705601,41.060306],[-73.705597,41.060317],[-73.705553,41.060401],[-73.705516,41.060465],[-73.705476,41.060519],[-73.705409,41.060544],[-73.705337,41.060553],[-73.7051,41.060592],[-73.705025,41.060602],[-73.705015,41.060637],[-73.705023,41.060676],[-73.70502,41.060745],[-73.705003,41.060789],[-73.704975,41.060843],[-73.704894,41.060915],[-73.704758,41.061036],[-73.704746,41.061069],[-73.704757,41.061169],[-73.704782,41.06126],[-73.704803,41.061306],[-73.704819,41.061335],[-73.704851,41.06138],[-73.704882,41.061402],[-73.704899,41.061422],[-73.705001,41.061475],[-73.705017,41.06152],[-73.705036,41.061576],[-73.705062,41.061598],[-73.705105,41.061624],[-73.705134,41.061659],[-73.705142,41.0617],[-73.705084,41.061786],[-73.70507,41.061881],[-73.705106,41.062016],[-73.705126,41.062058],[-73.705149,41.06214],[-73.705151,41.062172],[-73.705146,41.062198],[-73.705145,41.062246],[-73.705151,41.062282],[-73.705209,41.062365],[-73.705221,41.062387],[-73.705257,41.062432],[-73.705284,41.062484],[-73.705319,41.062537],[-73.70538,41.062623],[-73.705438,41.062685],[-73.705599,41.062883],[-73.705688,41.063029],[-73.705725,41.063126],[-73.705761,41.063224],[-73.70577,41.063332],[-73.705752,41.063402],[-73.705676,41.063456],[-73.705595,41.0635],[-73.705569,41.063529],[-73.705501,41.063605],[-73.705281,41.063724],[-73.705208,41.063789],[-73.705085,41.063848],[-73.70506,41.063867],[-73.705039,41.063883],[-73.705012,41.063916],[-73.705002,41.063961],[-73.704992,41.063997],[-73.704978,41.064035],[-73.704953,41.064058],[-73.704922,41.064077],[-73.704899,41.064089],[-73.704877,41.064099],[-73.704839,41.064134],[-73.704824,41.064161],[-73.704823,41.064181],[-73.704835,41.06422],[-73.704844,41.064254],[-73.704844,41.064283],[-73.704838,41.064303],[-73.704804,41.064332],[-73.704752,41.064379],[-73.704731,41.064398],[-73.704576,41.064498],[-73.704498,41.064542],[-73.704375,41.064599],[-73.704242,41.064653],[-73.704117,41.064689],[-73.704106,41.064698],[-73.704081,41.064726],[-73.704054,41.06477],[-73.704062,41.064795],[-73.704066,41.064837],[-73.704056,41.064869],[-73.704025,41.064905],[-73.703972,41.064937],[-73.703954,41.064949],[-73.703927,41.065003],[-73.703917,41.06504],[-73.703884,41.065075],[-73.703872,41.065109],[-73.703873,41.065144],[-73.703875,41.065156],[-73.703896,41.06518],[-73.703954,41.065226],[-73.703977,41.065255],[-73.704077,41.065378],[-73.70412,41.065427],[-73.704395,41.065744],[-73.704439,41.065793],[-73.704621,41.066],[-73.704654,41.066033],[-73.704779,41.066165],[-73.70481,41.066207],[-73.70485,41.066256],[-73.704915,41.066332],[-73.704954,41.066381],[-73.705056,41.06652],[-73.705108,41.066589],[-73.705146,41.066643],[-73.705144,41.066694],[-73.705139,41.066724],[-73.705155,41.066732],[-73.70518,41.066781],[-73.705202,41.066796],[-73.705203,41.066844],[-73.705216,41.066918],[-73.705235,41.066988],[-73.705254,41.067139],[-73.705259,41.067278],[-73.70525,41.067488],[-73.705239,41.067606],[-73.705227,41.067666],[-73.705217,41.067773],[-73.705225,41.067798],[-73.705235,41.06789],[-73.705231,41.067943],[-73.705239,41.068276],[-73.705237,41.068491],[-73.705223,41.068654],[-73.705245,41.068909],[-73.70525,41.068961],[-73.705227,41.069116],[-73.705233,41.069226],[-73.705389,41.069799],[-73.705437,41.069972],[-73.705439,41.070031],[-73.705444,41.070131],[-73.705493,41.070284],[-73.705519,41.0704],[-73.705587,41.070647],[-73.705681,41.070825],[-73.705688,41.070968],[-73.705705,41.071107],[-73.705827,41.071395],[-73.705897,41.071543],[-73.705993,41.071719],[-73.706077,41.071931],[-73.706369,41.072535],[-73.706457,41.072668],[-73.706496,41.072767],[-73.706532,41.072822],[-73.706562,41.072862],[-73.706577,41.072896],[-73.706601,41.072949],[-73.706621,41.073017],[-73.706635,41.073116],[-73.706643,41.073246],[-73.706636,41.073418]]],[[[-73.736784,40.955739],[-73.736756,40.955801],[-73.736696,40.955996],[-73.736675,40.956032],[-73.736519,40.956296],[-73.736404,40.956527],[-73.736344,40.956695],[-73.736345,40.956863],[-73.736343,40.956923],[-73.736276,40.957046],[-73.736232,40.957098],[-73.735893,40.957512],[-73.735525,40.957823],[-73.735147,40.958295],[-73.735107,40.958345],[-73.734985,40.958586],[-73.734897,40.958874],[-73.734899,40.959139],[-73.734917,40.959316],[-73.734944,40.959343],[-73.735124,40.959506],[-73.735259,40.959652],[-73.735273,40.959693],[-73.735366,40.959939],[-73.735477,40.960172],[-73.73548,40.960236],[-73.73547,40.960317],[-73.735459,40.960419],[-73.735371,40.960566],[-73.735272,40.960698],[-73.735045,40.960888],[-73.734644,40.961282],[-73.734297,40.961737],[-73.734155,40.961888],[-73.734116,40.961928],[-73.733713,40.962128],[-73.733463,40.962279],[-73.733357,40.962344],[-73.733212,40.962474],[-73.733071,40.9626],[-73.732734,40.962789],[-73.732479,40.962905],[-73.732377,40.96295],[-73.73206,40.963107],[-73.731978,40.963168],[-73.73151,40.963352],[-73.731364,40.963409],[-73.731084,40.96351],[-73.730552,40.963696],[-73.730392,40.963782],[-73.73038,40.963796],[-73.730315,40.963822],[-73.730231,40.963933],[-73.730238,40.964099],[-73.730243,40.964114],[-73.72987,40.963983],[-73.729586,40.963884],[-73.727121,40.963011],[-73.72616,40.962668],[-73.725304,40.962353],[-73.724912,40.962225],[-73.724765,40.962173],[-73.724582,40.962108],[-73.723632,40.96177],[-73.721803,40.961146],[-73.721506,40.961045],[-73.720837,40.960827],[-73.72042,40.96068],[-73.7194,40.960347],[-73.717866,40.959848],[-73.715811,40.959173],[-73.715769,40.959147],[-73.715698,40.958662],[-73.715459,40.957048],[-73.715182,40.955132],[-73.71517,40.955047],[-73.715102,40.954581],[-73.714918,40.953303],[-73.714892,40.953125],[-73.714819,40.952613],[-73.714691,40.951704],[-73.714368,40.949421],[-73.71426,40.948967],[-73.714287,40.948952],[-73.714231,40.948578],[-73.714207,40.948566],[-73.714199,40.948503],[-73.714184,40.948444],[-73.714175,40.948382],[-73.714203,40.948358],[-73.714088,40.947573],[-73.714,40.946973],[-73.713973,40.946964],[-73.713947,40.946958],[-73.713919,40.946955],[-73.713912,40.946924],[-73.713737,40.946209],[-73.713687,40.945998],[-73.713683,40.94598],[-73.713699,40.945975],[-73.713716,40.94597],[-73.71374,40.945967],[-73.713758,40.945966],[-73.713767,40.945955],[-73.713776,40.945945],[-73.713791,40.945947],[-73.713806,40.945951],[-73.713808,40.94596],[-73.7138,40.94598],[-73.713807,40.945988],[-73.713828,40.945997],[-73.713843,40.946002],[-73.713858,40.946007],[-73.713787,40.945531],[-73.713636,40.944602],[-73.713621,40.944603],[-73.713602,40.944594],[-73.713593,40.944587],[-73.713571,40.94455],[-73.713533,40.944535],[-73.713521,40.944486],[-73.712155,40.935606],[-73.711774,40.933098],[-73.713853,40.934974],[-73.716874,40.937698],[-73.719847,40.939061],[-73.721674,40.939898],[-73.725667,40.941077],[-73.726075,40.941198],[-73.726875,40.942098],[-73.727698,40.944061],[-73.727756,40.944185],[-73.728071,40.94467],[-73.728148,40.944857],[-73.72815,40.944917],[-73.728708,40.945283],[-73.730244,40.94629],[-73.730808,40.94666],[-73.732177,40.947558],[-73.732184,40.947611],[-73.732226,40.947812],[-73.732371,40.948006],[-73.732558,40.948172],[-73.73256,40.948183],[-73.732558,40.948204],[-73.732562,40.948224],[-73.732573,40.948238],[-73.732589,40.948251],[-73.732604,40.948265],[-73.732602,40.948274],[-73.732603,40.948286],[-73.732613,40.948304],[-73.732618,40.948314],[-73.732623,40.948326],[-73.732627,40.948335],[-73.732632,40.948345],[-73.732635,40.948354],[-73.732647,40.948389],[-73.732641,40.948604],[-73.732624,40.948753],[-73.732621,40.948885],[-73.732616,40.949036],[-73.732597,40.949121],[-73.732508,40.949233],[-73.732145,40.949535],[-73.732123,40.949556],[-73.731968,40.949708],[-73.731898,40.949775],[-73.731853,40.949994],[-73.731964,40.950193],[-73.731992,40.950257],[-73.732082,40.950501],[-73.732316,40.950831],[-73.732382,40.950919],[-73.732462,40.951028],[-73.732547,40.951187],[-73.732614,40.951213],[-73.732684,40.951279],[-73.732805,40.951408],[-73.732816,40.951421],[-73.732881,40.951467],[-73.733005,40.95151],[-73.733143,40.951529],[-73.733298,40.951535],[-73.733665,40.951578],[-73.734083,40.951674],[-73.734392,40.951808],[-73.734504,40.951921],[-73.734543,40.952042],[-73.734514,40.952183],[-73.734472,40.952327],[-73.734451,40.952406],[-73.734359,40.952637],[-73.734321,40.952797],[-73.734327,40.952995],[-73.734395,40.9533],[-73.73442,40.953506],[-73.734428,40.95367],[-73.734434,40.953861],[-73.734491,40.954005],[-73.73461,40.954235],[-73.73463,40.954331],[-73.734647,40.954402],[-73.734767,40.95463],[-73.734852,40.954706],[-73.734887,40.954735],[-73.735015,40.95488],[-73.735049,40.954907],[-73.735098,40.954944],[-73.735231,40.954947],[-73.735394,40.954886],[-73.735548,40.954821],[-73.735687,40.954813],[-73.735721,40.954812],[-73.735835,40.954832],[-73.736126,40.954884],[-73.736619,40.954946],[-73.736685,40.95516],[-73.736714,40.955362],[-73.736717,40.955385],[-73.736783,40.955576],[-73.736784,40.955739]]]]}}]}